[{"OBJECT_NAME":"X-SAT","OBJECT_ID":"2011-015C","EPOCH":"2026-03-09T22:53:38.580000","MEAN_MOTION":14.25171741,"ECCENTRICITY":0.0012844,"INCLINATION":98.3436,"RA_OF_ASC_NODE":50.7528,"ARG_OF_PERICENTER":275.8425,"MEAN_ANOMALY":84.1292,"EPHEMERIS_TYPE":0,"CLASSIFICATION_TYPE":"U","NORAD_CAT_ID":37389,"ELEMENT_SET_NO":999,"REV_AT_EPOCH":77354,"BSTAR":-4.3267073e-5,"MEAN_MOTION_DOT":-1.43e-6,"MEAN_MOTION_DDOT":0},{"OBJECT_NAME":"FENGYUN 1C DEB","OBJECT_ID":"1999-025LY","EPOCH":"2026-03-09T16:12:18.395424","MEAN_MOTION":14.29007356,"ECCENTRICITY":0.00058308,"INCLINATION":99.2936,"RA_OF_ASC_NODE":139.789,"ARG_OF_PERICENTER":76.4072,"MEAN_ANOMALY":283.7757,"EPHEMERIS_TYPE":0,"CLASSIFICATION_TYPE":"U","NORAD_CAT_ID":29998,"ELEMENT_SET_NO":999,"REV_AT_EPOCH":99116,"BSTAR":0.0010249344,"MEAN_MOTION_DOT":2.545e-5,"MEAN_MOTION_DDOT":0}]
